[{"OBJECT_NAME":"W-SERIES 4","OBJECT_ID":"2025-135R","EPOCH":"2026-03-09T19:54:39.716640","MEAN_MOTION":15.01503849,"ECCENTRICITY":0.04025811,"INCLINATION":97.4458,"RA_OF_ASC_NODE":182.1022,"ARG_OF_PERICENTER":65.9998,"MEAN_ANOMALY":298.2822,"EPHEMERIS_TYPE":0,"CLASSIFICATION_TYPE":"U","NORAD_CAT_ID":64543,"ELEMENT_SET_NO":999,"REV_AT_EPOCH":3954,"BSTAR":0.00063083397,"MEAN_MOTION_DOT":0.00052628,"MEAN_MOTION_DDOT":2.148409e-6},{"OBJECT_NAME":"SL-3 R\/B","OBJECT_ID":"1981-075B","EPOCH":"2026-03-09T23:39:21.121632","MEAN_MOTION":14.16412325,"ECCENTRICITY":0.00659416,"INCLINATION":81.2293,"RA_OF_ASC_NODE":11.646,"ARG_OF_PERICENTER":243.8616,"MEAN_ANOMALY":192.8582,"EPHEMERIS_TYPE":0,"CLASSIFICATION_TYPE":"U","NORAD_CAT_ID":12646,"ELEMENT_SET_NO":999,"REV_AT_EPOCH":30266,"BSTAR":5.2523282e-5,"MEAN_MOTION_DOT":1.19e-6,"MEAN_MOTION_DDOT":0}]
